$$SOE
2459580.500000000, A.D. 2022-Jan-01 00:00:00.0000, 2.667221789435648E+08, 1.599557062759823E+08, 1.821010855154282E+07,
2459587.500000000, A.D. 2022-Jan-08 00:00:00.0000, 2.594184929045327E+08, 1.703915985515420E+08, 1.886810094086814E+07,
2459594.500000000, A.D. 2022-Jan-15 00:00:00.0000, 2.516960148125984E+08, 1.805523158897534E+08, 1.949562583976970E+07,
2459601.500000000, A.D. 2022-Jan-22 00:00:00.0000, 2.435649534799342E+08, 1.904198351804332E+08, 2.009149488209270E+07,
2459608.500000000, A.D. 2022-Jan-29 00:00:00.0000, 2.350363925856865E+08, 1.999764854149088E+08, 2.065456586716564E+07,
2459615.500000000, A.D. 2022-Feb-05 00:00:00.0000, 2.261222794857691E+08, 2.092049965924070E+08, 2.118374658514819E+07,
2459622.500000000, A.D. 2022-Feb-12 00:00:00.0000, 2.168354128456763E+08, 2.180885477780179E+08, 2.167799830327560E+07,
2459629.500000000, A.D. 2022-Feb-19 00:00:00.0000, 2.071894276861575E+08, 2.266108164102481E+08, 2.213633920410259E+07,
2459636.500000000, A.D. 2022-Feb-26 00:00:00.0000, 1.971987764690280E+08, 2.347560278573231E+08, 2.255784781370287E+07,
2459643.500000000, A.D. 2022-Mar-05 00:00:00.0000, 1.868787063507233E+08, 2.425090043178983E+08, 2.294166633157626E+07,
2459650.500000000, A.D. 2022-Mar-12 00:00:00.0000, 1.762452328218505E+08, 2.498552127040444E+08, 2.328700381309296E+07,
2459657.500000000, A.D. 2022-Mar-19 00:00:00.0000, 1.653151098288811E+08, 2.567808112323829E+08, 2.359313917689274E+07,
2459664.500000000, A.D. 2022-Mar-26 00:00:00.0000, 1.541057964551826E+08, 2.632726944129277E+08, 2.385942401180251E+07,
2459671.500000000, A.D. 2022-Apr-02 00:00:00.0000, 1.426354203143386E+08, 2.693185360766068E+08, 2.408528515041175E+07,
2459678.500000000, A.D. 2022-Apr-09 00:00:00.0000, 1.309227380437807E+08, 2.749068301491377E+08, 2.427022696397981E+07,
2459685.500000000, A.D. 2022-Apr-16 00:00:00.0000, 1.189870934051917E+08, 2.800269295394697E+08, 2.441383338025209E+07,
2459692.500000000, A.D. 2022-Apr-23 00:00:00.0000, 1.068483719068060E+08, 2.846690839470565E+08, 2.451576981032380E+07,
2459699.500000000, A.D. 2022-Apr-30 00:00:00.0000, 9.452695027821285E+07, 2.888244740650194E+08, 2.457578495445825E+07,
2459706.500000000, A.D. 2022-May-07 00:00:00.0000, 8.204364408415525E+07, 2.924852399687992E+08, 2.459371203262790E+07,
2459713.500000000, A.D. 2022-May-14 00:00:00.0000, 6.941965513615881E+07, 2.956445065193261E+08, 2.456946955009709E+07,
2459720.500000000, A.D. 2022-May-21 00:00:00.0000, 5.667651695774514E+07, 2.982964063366144E+08, 2.450306183569218E+07,
2459727.500000000, A.D. 2022-May-28 00:00:00.0000, 4.383603812441618E+07, 3.004360992119844E+08, 2.439457931125948E+07,
2459734.500000000, A.D. 2022-Jun-04 00:00:00.0000, 3.092024407413444E+07, 3.020597875074725E+08, 2.424419843754812E+07,
2459741.500000000, A.D. 2022-Jun-11 00:00:00.0000, 1.795131786619403E+07, 3.031647274385148E+08, 2.405218132240479E+07,
2459748.500000000, A.D. 2022-Jun-18 00:00:00.0000, 4.951540270220210E+06, 3.037492361802874E+08, 2.381887499056582E+07,
2459755.500000000, A.D. 2022-Jun-25 00:00:00.0000, -8.056770436602606E+06, 3.038126947257589E+08, 2.354471031419232E+07,
2459762.500000000, A.D. 2022-Jul-02 00:00:00.0000, -2.105131848003168E+07, 3.033555464254838E+08, 2.323020059384409E+07,
2459769.500000000, A.D. 2022-Jul-09 00:00:00.0000, -3.400988967022732E+07, 3.023792914169847E+08, 2.287593977877660E+07,
2459776.500000000, A.D. 2022-Jul-16 00:00:00.0000, -4.691040927073357E+07, 3.008864780957628E+08, 2.248260043327805E+07,
2459783.500000000, A.D. 2022-Jul-23 00:00:00.0000, -5.973100051965324E+07, 2.988806918117941E+08, 2.205093167216690E+07,
2459790.500000000, A.D. 2022-Jul-30 00:00:00.0000, -7.245004339464051E+07, 2.963665375579782E+08, 2.158175679972053E+07,
2459797.500000000, A.D. 2022-Aug-06 00:00:00.0000, -8.504622973331289E+07, 2.933496174508547E+08, 2.107597039503390E+07,
2459804.500000000, A.D. 2022-Aug-13 00:00:00.0000, -9.749861525652653E+07, 2.898365059638989E+08, 2.053453516655219E+07,
2459811.500000000, A.D. 2022-Aug-20 00:00:00.0000, -1.097866697941692E+08, 2.858347226272632E+08, 1.995847869942610E+07,
2459818.500000000, A.D. 2022-Aug-27 00:00:00.0000, -1.218903254005191E+08, 2.813527016902316E+08, 1.934889005102420E+07,
2459825.500000000, A.D. 2022-Sep-03 00:00:00.0000, -1.337900218970473E+08, 2.763997588689911E+08, 1.870691618465218E+07,
2459832.500000000, A.D. 2022-Sep-10 00:00:00.0000, -1.454667495769151E+08, 2.709860554493728E+08, 1.803375825914168E+07,
2459839.500000000, A.D. 2022-Sep-17 00:00:00.0000, -1.569020889067965E+08, 2.651225600109078E+08, 1.733066779819952E+07,
2459846.500000000, A.D. 2022-Sep-24 00:00:00.0000, -1.680782470609213E+08, 2.588210080139076E+08, 1.659894275746097E+07,
2459853.500000000, A.D. 2022-Oct-01 00:00:00.0000, -1.789780909624300E+08, 2.520938595307686E+08, 1.583992349136065E+07,
2459860.500000000, A.D. 2022-Oct-08 00:00:00.0000, -1.895851763602992E+08, 2.449542559417719E+08, 1.505498864862427E+07,
2459867.500000000, A.D. 2022-Oct-15 00:00:00.0000, -1.998837738382359E+08, 2.374159770832611E+08, 1.424555120167969E+07,
2459874.500000000, A.D. 2022-Oct-22 00:00:00.0000, -2.098588939314931E+08, 2.294933974495604E+08, 1.341305469310412E+07,
2459881.500000000, A.D. 2022-Oct-29 00:00:00.0000, -2.194963088631977E+08, 2.212014391259990E+08, 1.255896927774832E+07,
2459888.500000000, A.D. 2022-Nov-05 00:00:00.0000, -2.287825688395899E+08, 2.125555244403701E+08, 1.168478761152151E+07,
2459895.500000000, A.D. 2022-Nov-12 00:00:00.0000, -2.377050149471221E+08, 2.035715298495916E+08, 1.079202088872138E+07,
2459902.500000000, A.D. 2022-Nov-19 00:00:00.0000, -2.462517894604948E+08, 1.942657403518609E+08, 9.882195032069951E+06,
2459909.500000000, A.D. 2022-Nov-26 00:00:00.0000, -2.544118434009091E+08, 1.846548042483034E+08, 8.956846993790083E+06,
2459916.500000000, A.D. 2022-Dec-03 00:00:00.0000, -2.621749412977690E+08, 1.747556884452066E+08, 8.017521164955102E+06,
2459923.500000000, A.D. 2022-Dec-10 00:00:00.0000, -2.695316632421896E+08, 1.645856345017599E+08, 7.065765902232185E+06,
2459930.500000000, A.D. 2022-Dec-17 00:00:00.0000, -2.764734043526283E+08, 1.541621155671412E+08, 6.103130177838609E+06,
2459937.500000000, A.D. 2022-Dec-24 00:00:00.0000, -2.829923716968371E+08, 1.435027942916994E+08, 5.131160345830292E+06,
2459944.500000000, A.D. 2022-Dec-31 00:00:00.0000, -2.890815784722270E+08, 1.326254819516613E+08, 4.151397007709451E+06,
2459951.500000000, A.D. 2023-Jan-07 00:00:00.0000, -2.947348354859245E+08, 1.215480998624498E+08, 3.165372050273933E+06,
2459958.500000000, A.D. 2023-Jan-14 00:00:00.0000, -2.999467420710691E+08, 1.102886436714553E+08, 2.174606080627687E+06,
2459965.500000000, A.D. 2023-Jan-21 00:00:00.0000, -3.047126772597078E+08, 9.886514743820742E+07, 1.180606060277253E+06,
2459972.500000000, A.D. 2023-Jan-28 00:00:00.0000, -3.090287877114382E+08, 8.729564737429866E+07, 1.848627872329392E+05,
2459979.500000000, A.D. 2023-Feb-04 00:00:00.0000, -3.128919727618943E+08, 7.559814831376360E+07, -8.111515061945058E+05,
2459986.500000000, A.D. 2023-Feb-11 00:00:00.0000, -3.162998685509339E+08, 6.379059274451108E+07, -1.805985292069163E+06,
2459993.500000000, A.D. 2023-Feb-18 00:00:00.0000, -3.192508314605623E+08, 5.189083159697856E+07, -2.798209686206030E+06,
2460000.500000000, A.D. 2023-Feb-25 00:00:00.0000, -3.217439207547488E+08, 3.991659663762274E+07, -3.786420228659244E+06,
2460007.500000000, A.D. 2023-Mar-04 00:00:00.0000, -3.237788804640526E+08, 2.788547448208522E+07, -4.769238516762460E+06,
2460014.500000000, A.D. 2023-Mar-11 00:00:00.0000, -3.253561206235763E+08, 1.581488221387204E+07, -5.745313697598305E+06,
2460021.500000000, A.D. 2023-Mar-18 00:00:00.0000, -3.264766979449295E+08, 3.722044535173374E+06, -6.713323832988257E+06,
2460028.500000000, A.D. 2023-Mar-25 00:00:00.0000, -3.271422958364162E+08, -8.376027630841721E+06, -7.671977164356852E+06,
2460035.500000000, A.D. 2023-Apr-01 00:00:00.0000, -3.273552034552141E+08, -2.046255673644074E+07, -8.620013289071821E+06,
2460042.500000000, A.D. 2023-Apr-08 00:00:00.0000, -3.271182945084999E+08, -3.252101523289040E+07, -9.556204096662106E+06,
2460049.500000000, A.D. 2023-Apr-15 00:00:00.0000, -3.264350082401499E+08, -4.453514038900810E+07, -1.047935434676458E+07,
2460056.500000000, A.D. 2023-Apr-22 00:00:00.0000, -3.253093308950378E+08, -5.648895042087588E+07, -1.138830231130587E+07,
2460063.500000000, A.D. 2023-Apr-29 00:00:00.0000, -3.237457750191731E+08, -6.836675973974979E+07, -1.228192055491522E+07,
2460070.500000000, A.D. 2023-May-06 00:00:00.0000, -3.217493584315743E+08, -8.015319159649092E+07, -1.315911655308232E+07,
2460077.500000000, A.D. 2023-May-13 00:00:00.0000, -3.193255839109141E+08, -9.183318908183859E+07, -1.401883313872020E+07,
2460084.500000000, A.D. 2023-May-20 00:00:00.0000, -3.164804194270246E+08, -1.033920250407328E+08, -1.486004884688475E+07,
2460091.500000000, A.D. 2023-May-27 00:00:00.0000, -3.132202787795756E+08, -1.148153109922983E+08, -1.568177818502451E+07,
2460098.500000000, A.D. 2023-Jun-03 00:00:00.0000, -3.095520026270509E+08, -1.260890050890141E+08, -1.648307183725515E+07,
2460105.500000000, A.D. 2023-Jun-10 00:00:00.0000, -3.054828399092396E+08, -1.371994191915113E+08, -1.726301681003069E+07,
2460112.500000000, A.D. 2023-Jun-17 00:00:00.0000, -3.010204295949476E+08, -1.481332251891055E+08, -1.802073653665673E+07,
2460119.500000000, A.D. 2023-Jun-24 00:00:00.0000, -2.961727824581280E+08, -1.588774605858598E+08, -1.875539097151614E+07,
2460126.500000000, A.D. 2023-Jul-01 00:00:00.0000, -2.909482626567054E+08, -1.694195325971478E+08, -1.946617663699492E+07,
2460133.500000000, A.D. 2023-Jul-08 00:00:00.0000, -2.853555708129636E+08, -1.797472199999180E+08, -2.015232640960685E+07,
2460140.500000000, A.D. 2023-Jul-15 00:00:00.0000, -2.794037298898493E+08, -1.898486756266283E+08, -2.081310916572634E+07,
2460147.500000000, A.D. 2023-Jul-22 00:00:00.0000, -2.731020703542291E+08, -1.997124305956737E+08, -2.144782969991520E+07,
$$EOE